ONEWEB-0037             
1 45440U 20020S   23275.84212405  .00000262  00000+0  69993-3 0  9994
2 45440  87.8971 217.3696 0001975  84.1385 275.9968 13.11674717173155
ONEWEB-0042             
1 45441U 20020T   23275.84754670  .00000158  00000+0  41837-3 0  9991
2 45441  87.8963 217.3888 0002105  83.0190 277.1177 13.09862525173124
ONEWEB-0098             
1 45442U 20020U   23275.84385322  .00000233  00000+0  61841-3 0  9997
2 45442  87.8975 217.3927 0002103  70.6751 289.4605 13.11772510173102
ONEWEB-0055             
1 45443U 20020V   23276.36533410  .00000628  00000+0  17347-2 0  9998
2 45443  87.8977 217.2938 0002087  74.6292 285.5066 13.11477138173152
ONEWEB-0093             
1 45444U 20020W   23275.88085633 -.00000204  00000+0 -60920-3 0  9992
2 45444  87.8969 217.3745 0002252  73.8769 286.2607 13.11524320173149
ONEWEB-0029             
1 45445U 20020X   23275.82373258  .00000412  00000+0  11299-2 0  9993
2 45445  87.8972 217.3933 0002192  81.2369 278.9007 13.11253536173112
ONEWEB-0068             
1 45446U 20020Y   23275.87478243 -.00000609  00000+0 -17596-2 0  9995
2 45446  87.8971 217.3741 0002353  75.6483 284.4906 13.11206019173060
ONEWEB-0046             
1 45447U 20020Z   23275.87218394  .00000551  00000+0  15276-2 0  9992
2 45447  87.8967 217.3863 0001981  82.8921 277.2432 13.11061346173071
